ONEWEB-0102             
1 47258U 20100A   25299.77281013 -.00000351  00000+0 -10110-2 0  9990
2 47258  87.8970  37.0545 0001899  99.9635 260.1709 13.12444065234115
ONEWEB-0109             
1 47259U 20100B   25300.00962985 -.00000394  00000+0 -11306-2 0  9999
2 47259  87.8971  36.9754 0001869 101.7105 258.4233 13.12443158233975
ONEWEB-0110             
1 47260U 20100C   25300.18807220  .00000469  00000+0  12688-2 0  9995
2 47260  87.8968  36.9238 0001833 110.4422 249.6904 13.12442315234163
ONEWEB-0111             
1 47261U 20100D   25299.99016902 -.00000324  00000+0 -93465-3 0  9996
2 47261  87.8968  36.9802 0001747 101.3934 258.7390 13.12444467233970
ONEWEB-0114             
1 47262U 20100E   25300.17347453  .00000307  00000+0  81773-3 0  9996
2 47262  87.8971  36.9384 0001952  94.4841 265.6511 13.12443253233959
ONEWEB-0117             
1 47263U 20100F   25300.01287295 -.00000255  00000+0 -74439-3 0  9992
2 47263  87.8971  36.9682 0001743 103.1013 257.0310 13.12443183233941
ONEWEB-0118             
1 47264U 20100G   25299.96908826  .00000284  00000+0  75495-3 0  9997
2 47264  87.8970  36.9762 0001748  89.8670 270.2659 13.12440795234135
ONEWEB-0119             
1 47265U 20100H   25299.99665262 -.00000410  00000+0 -11753-2 0  9994
2 47265  87.8968  37.0071 0001794 102.7070 257.4259 13.12441446234113
